{
  "type": "FeatureCollection",
  "features": [
    {
      "type": "Feature",
      "geometry": {
        "type": "Polygon",
        "coordinates": [
          [
            [127.38, 36.34],
            [127.39, 36.34],
            [127.39, 36.35],
            [127.38, 36.35],
            [127.38, 36.34]
          ]
        ]
      },
      "properties": {
        "source_feature_id": "SYNTHETIC-VALIDATOR-UD602-1",
        "source_dataset_id": "30335",
        "source_layer": "UD602",
        "name": "합성 릴리스 검증 경계 · 실데이터 아님",
        "notice_ids": [],
        "original_crs": "EPSG:5186",
        "source_url": "https://example.invalid/synthetic-maintenance-validator-fixture",
        "retrieved_at": "2026-07-20T00:00:00+09:00",
        "bbox": [127.38, 36.34, 127.39, 36.35]
      },
      "bbox": [127.38, 36.34, 127.39, 36.35]
    }
  ]
}
